$$SOE
2459580.500000000, A.D. 2022-Jan-01 00:00:00.0000, 5.571082401644091E+07, -3.076758666428393E+08, 1.396935748075457E+08,
2459587.500000000, A.D. 2022-Jan-08 00:00:00.0000, 6.669995898970807E+07, -3.024911756273164E+08, 1.394127184147670E+08,
2459594.500000000, A.D. 2022-Jan-15 00:00:00.0000, 7.760646315059966E+07, -2.969318603009381E+08, 1.389591764918721E+08,
2459601.500000000, A.D. 2022-Jan-22 00:00:00.0000, 8.841443017343664E+07, -2.909956131584105E+08, 1.383292066046165E+08,
2459608.500000000, A.D. 2022-Jan-29 00:00:00.0000, 9.910731321569940E+07, -2.846806500028583E+08, 1.375191771631326E+08,
2459615.500000000, A.D. 2022-Feb-05 00:00:00.0000, 1.096679195889155E+08, -2.779857673232786E+08, 1.365255909928730E+08,
2459622.500000000, A.D. 2022-Feb-12 00:00:00.0000, 1.200784118893418E+08, -2.709104042662517E+08, 1.353451108545249E+08,
2459629.500000000, A.D. 2022-Feb-19 00:00:00.0000, 1.303203149661402E+08, -2.634547067175377E+08, 1.339745873020288E+08,
2459636.500000000, A.D. 2022-Feb-26 00:00:00.0000, 1.403745281712447E+08, -2.556195940189466E+08, 1.324110889882782E+08,
2459643.500000000, A.D. 2022-Mar-05 00:00:00.0000, 1.502213438543919E+08, -2.474068286428184E+08, 1.306519353689579E+08,
2459650.500000000, A.D. 2022-Mar-12 00:00:00.0000, 1.598404731696228E+08, -2.388190884838319E+08, 1.286947317541524E+08,
2459657.500000000, A.D. 2022-Mar-19 00:00:00.0000, 1.692110801364821E+08, -2.298600412074878E+08, 1.265374066299875E+08,
2459664.500000000, A.D. 2022-Mar-26 00:00:00.0000, 1.783118248615681E+08, -2.205344199863816E+08, 1.241782511153433E+08,
2459671.500000000, A.D. 2022-Apr-02 00:00:00.0000, 1.871209168623915E+08, -2.108480998478222E+08, 1.216159603415176E+08,
2459678.500000000, A.D. 2022-Apr-09 00:00:00.0000, 1.956161796061958E+08, -2.008081736259359E+08, 1.188496764525365E+08,
2459685.500000000, A.D. 2022-Apr-16 00:00:00.0000, 2.037751273960070E+08, -1.904230256861843E+08, 1.158790328864011E+08,
2459692.500000000, A.D. 2022-Apr-23 00:00:00.0000, 2.115750540045415E+08, -1.797024009817790E+08, 1.127041996890759E+08,
2459699.500000000, A.D. 2022-Apr-30 00:00:00.0000, 2.189931317054459E+08, -1.686574701503192E+08, 1.093259292905753E+08,
2459706.500000000, A.D. 2022-May-07 00:00:00.0000, 2.260065240909217E+08, -1.573008909104914E+08, 1.057456016322487E+08,
2459713.500000000, A.D. 2022-May-14 00:00:00.0000, 2.325925141518797E+08, -1.456468608524931E+08, 1.019652679930608E+08,
2459720.500000000, A.D. 2022-May-21 00:00:00.0000, 2.387286453820034E+08, -1.337111588741063E+08, 9.798769288828081E+07,
2459727.500000000, A.D. 2022-May-28 00:00:00.0000, 2.443928748708146E+08, -1.215111741486892E+08, 9.381639303178152E+07,
2459734.500000000, A.D. 2022-Jun-04 00:00:00.0000, 2.495637377108176E+08, -1.090659208311863E+08, 8.945567224813944E+07,
2459741.500000000, A.D. 2022-Jun-11 00:00:00.0000, 2.542205214772472E+08, -9.639603641987534E+07, 8.491065119162256E+07,
2459748.500000000, A.D. 2022-Jun-18 00:00:00.0000, 2.583434489743461E+08, -8.352376178180610E+07, 8.018729070671576E+07,
2459755.500000000, A.D. 2022-Jun-25 00:00:00.0000, 2.619138669653350E+08, -7.047290109020279E+07, 7.529240767194641E+07,
2459762.500000000, A.D. 2022-Jul-02 00:00:00.0000, 2.649144382451507E+08, -5.726876025373040E+07, 7.023368220822972E+07,
2459769.500000000, A.D. 2022-Jul-09 00:00:00.0000, 2.673293342305942E+08, -4.393806257256933E+07, 6.501965521801747E+07,
2459776.500000000, A.D. 2022-Jul-16 00:00:00.0000, 2.691444244162800E+08, -3.050883993382097E+07, 5.965971547444098E+07,
2459783.500000000, A.D. 2022-Jul-23 00:00:00.0000, 2.703474566170400E+08, -1.701029944289669E+07, 5.416407578917120E+07,
2459790.500000000, A.D. 2022-Jul-30 00:00:00.0000, 2.709282240089203E+08, -3.472669474316288E+06, 4.854373752846608E+07,
2459797.500000000, A.D. 2022-Aug-06 00:00:00.0000, 2.708787184277327E+08, 1.007297419405250E+07, 4.281044302428045E+07,
2459804.500000000, A.D. 2022-Aug-13 00:00:00.0000, 2.701932650658551E+08, 2.359490290155673E+07, 3.697661632774983E+07,
2459811.500000000, A.D. 2022-Aug-20 00:00:00.0000, 2.688686332332135E+08, 3.706094705888711E+07, 3.105529289972043E+07,
2459818.500000000, A.D. 2022-Aug-27 00:00:00.0000, 2.669041199162878E+08, 5.043872144107230E+07, 2.506003901267803E+07,
2459825.500000000, A.D. 2022-Sep-03 00:00:00.0000, 2.643016036348633E+08, 6.369585978132393E+07, 1.900486201158264E+07,
2459832.500000000, A.D. 2022-Sep-10 00:00:00.0000, 2.610655666649112E+08, 7.680025432656258E+07, 1.290411292180861E+07,
2459839.500000000, A.D. 2022-Sep-17 00:00:00.0000, 2.572030844760035E+08, 8.972029570533982E+07, 6.772383169045500E+06,
2459846.500000000, A.D. 2022-Sep-24 00:00:00.0000, 2.527237821819728E+08, 1.024251082960337E+08, 6.243973810059950E+05,
2459853.500000000, A.D. 2022-Oct-01 00:00:00.0000, 2.476397589357351E+08, 1.148847763772079E+08, -5.525095640228316E+06,
2459860.500000000, A.D. 2022-Oct-08 00:00:00.0000, 2.419654822913654E+08, 1.270705571238343E+08, -1.166143161230377E+07,
2459867.500000000, A.D. 2022-Oct-15 00:00:00.0000, 2.357176540505885E+08, 1.389550776028905E+08, -1.777013682761457E+07,
2459874.500000000, A.D. 2022-Oct-22 00:00:00.0000, 2.289150486130293E+08, 1.505125106259834E+08, -2.383702949200994E+07,
2459881.500000000, A.D. 2022-Oct-29 00:00:00.0000, 2.215783301529502E+08, 1.617187240781731E+08, -2.984831495756815E+07,
2459888.500000000, A.D. 2022-Nov-05 00:00:00.0000, 2.137298549484463E+08, 1.725514044254693E+08, -3.579067322300845E+07,
2459895.500000000, A.D. 2022-Nov-12 00:00:00.0000, 2.053934613754831E+08, 1.829901544578685E+08, -4.165133710251853E+07,
2459902.500000000, A.D. 2022-Nov-19 00:00:00.0000, 1.965942514284415E+08, 1.930165639231030E+08, -4.741816008556172E+07,
2459909.500000000, A.D. 2022-Nov-26 00:00:00.0000, 1.873583685394465E+08, 2.026142530209915E+08, -5.307967330397657E+07,
2459916.500000000, A.D. 2022-Dec-03 00:00:00.0000, 1.777127761364447E+08, 2.117688897843969E+08, -5.862513132533723E+07,
2459923.500000000, A.D. 2022-Dec-10 00:00:00.0000, 1.676850408847361E+08, 2.204681829727837E+08, -6.404454679296926E+07,
2459930.500000000, A.D. 2022-Dec-17 00:00:00.0000, 1.573031240592961E+08, 2.287018525238124E+08, -6.932871421140496E+07,
2459937.500000000, A.D. 2022-Dec-24 00:00:00.0000, 1.465951840399977E+08, 2.364615799184451E+08, -7.446922342266525E+07,
2459944.500000000, A.D. 2022-Dec-31 00:00:00.0000, 1.355893926012841E+08, 2.437409412244547E+08, -7.945846352087022E+07,
2459951.500000000, A.D. 2023-Jan-07 00:00:00.0000, 1.243137668652311E+08, 2.505353265572022E+08, -8.428961801076165E+07,
2459958.500000000, A.D. 2023-Jan-14 00:00:00.0000, 1.127960161421814E+08, 2.568418492334312E+08, -8.895665195691916E+07,
2459965.500000000, A.D. 2023-Jan-21 00:00:00.0000, 1.010634036760489E+08, 2.626592441595150E+08, -9.345429234447262E+07,
2459972.500000000, A.D. 2023-Jan-28 00:00:00.0000, 8.914262717787749E+07, 2.679877578493808E+08, -9.777800306054965E+07,
2459979.500000000, A.D. 2023-Feb-04 00:00:00.0000, 7.705971776430795E+07, 2.728290354717294E+08, -1.019239552691885E+08,
2459986.500000000, A.D. 2023-Feb-11 00:00:00.0000, 6.483995498574846E+07, 2.771860068611473E+08, -1.058889940192988E+08,
2459993.500000000, A.D. 2023-Feb-18 00:00:00.0000, 5.250779709405266E+07, 2.810627725447769E+08, -1.096706020748841E+08,
2460000.500000000, A.D. 2023-Feb-25 00:00:00.0000, 4.008682582674458E+07, 2.844644912297215E+08, -1.132668618562047E+08,
2460007.500000000, A.D. 2023-Mar-04 00:00:00.0000, 2.759970468420753E+07, 2.873972701087217E+08, -1.166764162630698E+08,
2460014.500000000, A.D. 2023-Mar-11 00:00:00.0000, 1.506814951593219E+07, 2.898680590651599E+08, -1.198984290519415E+08,
2460021.500000000, A.D. 2023-Mar-18 00:00:00.0000, 2.512910208965696E+06, 2.918845495668936E+08, -1.229325453474205E+08,
2460028.500000000, A.D. 2023-Mar-25 00:00:00.0000, -1.004623757767042E+07, 2.934550788209979E+08, -1.257788527873226E+08,
2460035.500000000, A.D. 2023-Apr-01 00:00:00.0000, -2.259049144583610E+07, 2.945885400090411E+08, -1.284378436968474E+08,
2460042.500000000, A.D. 2023-Apr-08 00:00:00.0000, -3.510201386442664E+07, 2.952943000896068E+08, -1.309103784489373E+08,
2460049.500000000, A.D. 2023-Apr-15 00:00:00.0000, -4.756391980406144E+07, 2.955821241794879E+08, -1.331976501311009E+08,
2460056.500000000, A.D. 2023-Apr-22 00:00:00.0000, -5.996025963156931E+07, 2.954621034548206E+08, -1.353011511107678E+08,
2460063.500000000, A.D. 2023-Apr-29 00:00:00.0000, -7.227599548469171E+07, 2.949445887292742E+08, -1.372226416965062E+08,
2460070.500000000, A.D. 2023-May-06 00:00:00.0000, -8.449697373918496E+07, 2.940401313180179E+08, -1.389641206712357E+08,
2460077.500000000, A.D. 2023-May-13 00:00:00.0000, -9.660989530481754E+07, 2.927594300544069E+08, -1.405277977126984E+08,
2460084.500000000, A.D. 2023-May-20 00:00:00.0000, -1.086022841918396E+08, 2.911132836846277E+08, -1.419160677586746E+08,
2460091.500000000, A.D. 2023-May-27 00:00:00.0000, -1.204624547469216E+08, 2.891125482988069E+08, -1.431314873068028E+08,
2460098.500000000, A.D. 2023-Jun-03 00:00:00.0000, -1.321794780139680E+08, 2.867680994949145E+08, -1.441767526010939E+08,
2460105.500000000, A.D. 2023-Jun-10 00:00:00.0000, -1.437431476351317E+08, 2.840907989235142E+08, -1.450546796412971E+08,
2460112.500000000, A.D. 2023-Jun-17 00:00:00.0000, -1.551439455744493E+08, 2.810914648139861E+08, -1.457681859490612E+08,
2460119.500000000, A.D. 2023-Jun-24 00:00:00.0000, -1.663730076545597E+08, 2.777808462033191E+08, -1.463202740280679E+08,
2460126.500000000, A.D. 2023-Jul-01 00:00:00.0000, -1.774220889099017E+08, 2.741696013705918E+08, -1.467140163810728E+08,
2460133.500000000, A.D. 2023-Jul-08 00:00:00.0000, -1.882835306390432E+08, 2.702682809886819E+08, -1.469525417695410E+08,
2460140.500000000, A.D. 2023-Jul-15 00:00:00.0000, -1.989502305954968E+08, 2.660873128694672E+08, -1.470390227348488E+08,
2460147.500000000, A.D. 2023-Jul-22 00:00:00.0000, -2.094156129201282E+08, 2.616369869863795E+08, -1.469766646882617E+08,
$$EOE